CCSDS_OMM_VERS = 2.0
CREATION_DATE  = 
ORIGINATOR     = 

OBJECT_NAME    = SL-3 R/B
OBJECT_ID      = 1982-079B
CENTER_NAME    = EARTH
REF_FRAME      = TEME
TIME_SYSTEM    = UTC
MEAN_ELEMENT_THEORY = SGP/SGP4

EPOCH          = 2026-01-25T11:27:53.729280
MEAN_MOTION    = 15.24179997
ECCENTRICITY   = .0024535
INCLINATION    = 81.1446
RA_OF_ASC_NODE = 244.0835
ARG_OF_PERICENTER = 314.4369
MEAN_ANOMALY   = 45.4855

EPHEMERIS_TYPE = 0
CLASSIFICATION_TYPE = U
NORAD_CAT_ID   = 13403
ELEMENT_SET_NO = 999
REV_AT_EPOCH   = 37111
BSTAR          = .3315E-3
MEAN_MOTION_DOT = .8166E-4
MEAN_MOTION_DDOT = 0

CCSDS_OMM_VERS = 2.0
CREATION_DATE  = 
ORIGINATOR     = 

OBJECT_NAME    = SL-14 R/B
OBJECT_ID      = 1982-092B
CENTER_NAME    = EARTH
REF_FRAME      = TEME
TIME_SYSTEM    = UTC
MEAN_ELEMENT_THEORY = SGP/SGP4

EPOCH          = 2026-01-25T11:59:36.214944
MEAN_MOTION    = 14.86611646
ECCENTRICITY   = .0021863
INCLINATION    = 82.5683
RA_OF_ASC_NODE = 181.7842
ARG_OF_PERICENTER = 84.9584
MEAN_ANOMALY   = 337.5665

EPHEMERIS_TYPE = 0
CLASSIFICATION_TYPE = U
NORAD_CAT_ID   = 13553
ELEMENT_SET_NO = 999
REV_AT_EPOCH   = 32251
BSTAR          = .10749E-3
MEAN_MOTION_DOT = .982E-5
MEAN_MOTION_DDOT = 0

CCSDS_OMM_VERS = 2.0
CREATION_DATE  = 
ORIGINATOR     = 

OBJECT_NAME    = SL-3 R/B
OBJECT_ID      = 1983-010B
CENTER_NAME    = EARTH
REF_FRAME      = TEME
TIME_SYSTEM    = UTC
MEAN_ELEMENT_THEORY = SGP/SGP4

EPOCH          = 2026-01-25T12:19:21.792288
MEAN_MOTION    = 15.44836957
ECCENTRICITY   = .0016788
INCLINATION    = 81.1021
RA_OF_ASC_NODE = 55.1277
ARG_OF_PERICENTER = 192.3167
MEAN_ANOMALY   = 167.7669

EPHEMERIS_TYPE = 0
CLASSIFICATION_TYPE = U
NORAD_CAT_ID   = 13819
ELEMENT_SET_NO = 999
REV_AT_EPOCH   = 35127
BSTAR          = .39974E-3
MEAN_MOTION_DOT = .18887E-3
MEAN_MOTION_DDOT = 0

CCSDS_OMM_VERS = 2.0
CREATION_DATE  = 
ORIGINATOR     = 

OBJECT_NAME    = SL-3 R/B
OBJECT_ID      = 1983-075B
CENTER_NAME    = EARTH
REF_FRAME      = TEME
TIME_SYSTEM    = UTC
MEAN_ELEMENT_THEORY = SGP/SGP4

EPOCH          = 2026-01-25T11:33:54.675648
MEAN_MOTION    = 15.37236959
ECCENTRICITY   = .002319
INCLINATION    = 97.6129
RA_OF_ASC_NODE = 28.4720
ARG_OF_PERICENTER = 29.1297
MEAN_ANOMALY   = 331.1235

EPHEMERIS_TYPE = 0
CLASSIFICATION_TYPE = U
NORAD_CAT_ID   = 14208
ELEMENT_SET_NO = 999
REV_AT_EPOCH   = 32351
BSTAR          = .48545E-3
MEAN_MOTION_DOT = .17797E-3
MEAN_MOTION_DDOT = 0

CCSDS_OMM_VERS = 2.0
CREATION_DATE  = 
ORIGINATOR     = 

OBJECT_NAME    = COSMOS 1536
OBJECT_ID      = 1984-013A
CENTER_NAME    = EARTH
REF_FRAME      = TEME
TIME_SYSTEM    = UTC
MEAN_ELEMENT_THEORY = SGP/SGP4

EPOCH          = 2026-01-25T10:29:38.084640
MEAN_MOTION    = 15.23193500
ECCENTRICITY   = .0015716
INCLINATION    = 82.5468
RA_OF_ASC_NODE = 150.8105
ARG_OF_PERICENTER = 76.5264
MEAN_ANOMALY   = 283.7722

EPHEMERIS_TYPE = 0
CLASSIFICATION_TYPE = U
NORAD_CAT_ID   = 14699
ELEMENT_SET_NO = 999
REV_AT_EPOCH   = 26603
BSTAR          = .42523E-3
MEAN_MOTION_DOT = .10123E-3
MEAN_MOTION_DDOT = 0

CCSDS_OMM_VERS = 2.0
CREATION_DATE  = 
ORIGINATOR     = 

OBJECT_NAME    = SL-14 R/B
OBJECT_ID      = 1984-027B
CENTER_NAME    = EARTH
REF_FRAME      = TEME
TIME_SYSTEM    = UTC
MEAN_ELEMENT_THEORY = SGP/SGP4

EPOCH          = 2026-01-25T11:05:05.454816
MEAN_MOTION    = 14.85930663
ECCENTRICITY   = .0019391
INCLINATION    = 82.5423
RA_OF_ASC_NODE = 285.5601
ARG_OF_PERICENTER = 114.4071
MEAN_ANOMALY   = 245.9171

EPHEMERIS_TYPE = 0
CLASSIFICATION_TYPE = U
NORAD_CAT_ID   = 14820
ELEMENT_SET_NO = 999
REV_AT_EPOCH   = 24121
BSTAR          = .89879E-4
MEAN_MOTION_DOT = .811E-5
MEAN_MOTION_DDOT = 0

CCSDS_OMM_VERS = 2.0
CREATION_DATE  = 
ORIGINATOR     = 

OBJECT_NAME    = SL-8 R/B
OBJECT_ID      = 1985-006B
CENTER_NAME    = EARTH
REF_FRAME      = TEME
TIME_SYSTEM    = UTC
MEAN_ELEMENT_THEORY = SGP/SGP4

EPOCH          = 2026-01-25T07:38:47.545440
MEAN_MOTION    = 14.37757127
ECCENTRICITY   = .0019781
INCLINATION    = 74.0473
RA_OF_ASC_NODE = 340.9508
ARG_OF_PERICENTER = 266.3413
MEAN_ANOMALY   = 201.6677

EPHEMERIS_TYPE = 0
CLASSIFICATION_TYPE = U
NORAD_CAT_ID   = 15483
ELEMENT_SET_NO = 999
REV_AT_EPOCH   = 14779
BSTAR          = .19478E-3
MEAN_MOTION_DOT = .561E-5
MEAN_MOTION_DDOT = 0

CCSDS_OMM_VERS = 2.0
CREATION_DATE  = 
ORIGINATOR     = 

OBJECT_NAME    = SL-12 R/B(2)
OBJECT_ID      = 1985-042D
CENTER_NAME    = EARTH
REF_FRAME      = TEME
TIME_SYSTEM    = UTC
MEAN_ELEMENT_THEORY = SGP/SGP4

EPOCH          = 2026-01-25T12:01:31.851840
MEAN_MOTION    = 14.21967659
ECCENTRICITY   = .0035827
INCLINATION    = 71.1072
RA_OF_ASC_NODE = 178.9696
ARG_OF_PERICENTER = 196.3840
MEAN_ANOMALY   = 221.5109

EPHEMERIS_TYPE = 0
CLASSIFICATION_TYPE = U
NORAD_CAT_ID   = 15772
ELEMENT_SET_NO = 999
REV_AT_EPOCH   = 10825
BSTAR          = .10327E-3
MEAN_MOTION_DOT = .182E-5
MEAN_MOTION_DDOT = 0

CCSDS_OMM_VERS = 2.0
CREATION_DATE  = 
ORIGINATOR     = 

OBJECT_NAME    = SL-14 R/B
OBJECT_ID      = 1985-069B
CENTER_NAME    = EARTH
REF_FRAME      = TEME
TIME_SYSTEM    = UTC
MEAN_ELEMENT_THEORY = SGP/SGP4

EPOCH          = 2026-01-25T11:02:02.629824
MEAN_MOTION    = 14.86380025
ECCENTRICITY   = .0018205
INCLINATION    = 82.5245
RA_OF_ASC_NODE = 65.5949
ARG_OF_PERICENTER = 340.2797
MEAN_ANOMALY   = 19.7713

EPHEMERIS_TYPE = 0
CLASSIFICATION_TYPE = U
NORAD_CAT_ID   = 15945
ELEMENT_SET_NO = 999
REV_AT_EPOCH   = 16641
BSTAR          = .86257E-4
MEAN_MOTION_DOT = .787E-5
MEAN_MOTION_DDOT = 0

CCSDS_OMM_VERS = 2.0
CREATION_DATE  = 
ORIGINATOR     = 

OBJECT_NAME    = SL-16 R/B
OBJECT_ID      = 1985-097B
CENTER_NAME    = EARTH
REF_FRAME      = TEME
TIME_SYSTEM    = UTC
MEAN_ELEMENT_THEORY = SGP/SGP4

EPOCH          = 2026-01-25T07:10:49.622016
MEAN_MOTION    = 14.16590879
ECCENTRICITY   = .0009006
INCLINATION    = 71.0001
RA_OF_ASC_NODE = 231.8998
ARG_OF_PERICENTER = 310.9427
MEAN_ANOMALY   = 222.0253

EPHEMERIS_TYPE = 0
CLASSIFICATION_TYPE = U
NORAD_CAT_ID   = 16182
ELEMENT_SET_NO = 999
REV_AT_EPOCH   = 8108
BSTAR          = .25952E-4
MEAN_MOTION_DOT = .4E-7
MEAN_MOTION_DDOT = 0

CCSDS_OMM_VERS = 2.0
CREATION_DATE  = 
ORIGINATOR     = 

OBJECT_NAME    = SL-14 R/B
OBJECT_ID      = 1986-006B
CENTER_NAME    = EARTH
REF_FRAME      = TEME
TIME_SYSTEM    = UTC
MEAN_ELEMENT_THEORY = SGP/SGP4

EPOCH          = 2026-01-25T05:54:29.469888
MEAN_MOTION    = 14.86745458
ECCENTRICITY   = .007803
INCLINATION    = 82.5286
RA_OF_ASC_NODE = 300.6214
ARG_OF_PERICENTER = 57.3281
MEAN_ANOMALY   = 303.5431

EPHEMERIS_TYPE = 0
CLASSIFICATION_TYPE = U
NORAD_CAT_ID   = 16496
ELEMENT_SET_NO = 999
REV_AT_EPOCH   = 14275
BSTAR          = .14071E-3
MEAN_MOTION_DOT = .1351E-4
MEAN_MOTION_DDOT = 0

CCSDS_OMM_VERS = 2.0
CREATION_DATE  = 
ORIGINATOR     = 

OBJECT_NAME    = COSMOS 1743
OBJECT_ID      = 1986-034A
CENTER_NAME    = EARTH
REF_FRAME      = TEME
TIME_SYSTEM    = UTC
MEAN_ELEMENT_THEORY = SGP/SGP4

EPOCH          = 2026-01-25T07:45:43.145856
MEAN_MOTION    = 15.55290420
ECCENTRICITY   = .0005385
INCLINATION    = 82.5345
RA_OF_ASC_NODE = 119.2239
ARG_OF_PERICENTER = 93.5912
MEAN_ANOMALY   = 266.5958

EPHEMERIS_TYPE = 0
CLASSIFICATION_TYPE = U
NORAD_CAT_ID   = 16719
ELEMENT_SET_NO = 999
REV_AT_EPOCH   = 17350
BSTAR          = .68043E-3
MEAN_MOTION_DOT = .46337E-3
MEAN_MOTION_DDOT = 0

