SL-3 R/B                
1 13403U 82079B   26025.47770520  .00008166  00000+0  33150-3 0  9999
2 13403  81.1446 244.0835 0024535 314.4369  45.4855 15.24179997371110
SL-14 R/B               
1 13553U 82092B   26025.49972471  .00000982  00000+0  10749-3 0  9998
2 13553  82.5683 181.7842 0021863  84.9584 337.5665 14.86611646322511
SL-3 R/B                
1 13819U 83010B   26025.51344667  .00018887  00000+0  39974-3 0  9991
2 13819  81.1021  55.1277 0016788 192.3167 167.7669 15.44836957351275
SL-3 R/B                
1 14208U 83075B   26025.48188282  .00017797  00000+0  48545-3 0  9993
2 14208  97.6129  28.4720 0023190  29.1297 331.1235 15.37236959323511
COSMOS 1536             
1 14699U 84013A   26025.43724635  .00010123  00000+0  42523-3 0  9999
2 14699  82.5468 150.8105 0015716  76.5264 283.7722 15.23193500266031
SL-14 R/B               
1 14820U 84027B   26025.46186869  .00000811  00000+0  89879-4 0  9993
2 14820  82.5423 285.5601 0019391 114.4071 245.9171 14.85930663241213
SL-8 R/B                
1 15483U 85006B   26025.31860585  .00000561  00000+0  19478-3 0  9994
2 15483  74.0473 340.9508 0019781 266.3413 201.6677 14.37757127147799
SL-12 R/B(2)            
1 15772U 85042D   26025.50106310  .00000182  00000+0  10327-3 0  9998
2 15772  71.1072 178.9696 0035827 196.3840 221.5109 14.21967659108250
SL-14 R/B               
1 15945U 85069B   26025.45975266  .00000787  00000+0  86257-4 0  9994
2 15945  82.5245  65.5949 0018205 340.2797  19.7713 14.86380025166411
SL-16 R/B               
1 16182U 85097B   26025.29918544  .00000004  00000+0  25952-4 0  9994
2 16182  71.0001 231.8998 0009006 310.9427 222.0253 14.16590879 81083
SL-14 R/B               
1 16496U 86006B   26025.24617442  .00001351  00000+0  14071-3 0  9996
2 16496  82.5286 300.6214 0078030  57.3281 303.5431 14.86745458142759
COSMOS 1743             
1 16719U 86034A   26025.32341604  .00046337  00000+0  68043-3 0  9999
2 16719  82.5345 119.2239 0005385  93.5912 266.5958 15.55290420173500
